IRIDIUM 171             
1 43929U 19002H   24122.28886595  .00000110  00000+0  32107-4 0  9999
2 43929  86.3950 318.4866 0001917  90.9521 269.1894 14.34216065277603
IRIDIUM 170             
1 43930U 19002J   24122.09040199  .00000566  00000+0  85954-4 0  9995
2 43930  86.6068 318.3974 0002306  86.8634 273.2847 14.72236257284923
IRIDIUM 167             
1 43931U 19002K   24121.93368094  .00000102  00000+0  29322-4 0  9998
2 43931  86.3940 318.4303 0002110  89.6467 270.4971 14.34215946277553
IRIDIUM 181             
1 56726U 23068S   24122.38782193  .00000070  00000+0  14903-4 0  9994
2 56726  86.8680   9.6809 0002032  84.2420 275.9013 14.43599394 50387
IRIDIUM 177             
1 56727U 23068T   24121.83654213  .00001908  00000+0  24767-3 0  9994
2 56727  86.1977 337.8544 0001964  96.6886 263.4559 14.80221205 51379
IRIDIUM 174             
1 56728U 23068U   24122.30427731  .00001993  00000+0  25893-3 0  9996
2 56728  86.1986 337.7321 0002539  85.4413 274.7098 14.80217323 51440
IRIDIUM 178             
1 56729U 23068V   24121.89331016  .00001875  00000+0  24339-3 0  9993
2 56729  86.5806 353.1441 0003090  83.8884 276.2690 14.80221051 51389
IRIDIUM 179             
1 56730U 23068W   24121.88782690  .00001849  00000+0  23998-3 0  9993
2 56730  86.6822 356.6830 0002785  86.8732 273.2808 14.80231134 51386
